{"type": "FeatureCollection", "features": [ {"type": "Feature", "properties": {"norad_id": 66529, "name": "STARLINK-35933", "group": "last-30-days", "lat": 25.43684430819539, "lon": -101.63788571710033, "alt_km": 341.5145925904653, "timestamp": "2025-12-03T10:52:56.222500+00:00", "meta": {"OBJECT_NAME": "STARLINK-35933", "OBJECT_ID": "2025-265P", "EPOCH": "2025-12-03T04:00:01.998720", "MEAN_MOTION": 15.7495966, "ECCENTRICITY": 0.0001799, "INCLINATION": 42.9997, "RA_OF_ASC_NODE": 110.7939, "ARG_OF_PERICENTER": 275.7004, "MEAN_ANOMALY": 37.4281, "EPHEMERIS_TYPE": 0, "CLASSIFICATION_TYPE": "U", "NORAD_CAT_ID": 66529, "ELEMENT_SET_NO": 999, "REV_AT_EPOCH": 345, "BSTAR": 0.00026372, "MEAN_MOTION_DOT": 0.00040085, "MEAN_MOTION_DDOT": 0}, "tle": {"line1": "1 66529U 25265P   25337.16668980  .00040085  00000+0  26372-3 0  9991", "line2": "2 66529  42.9997 110.7939 0001799 275.7004  37.4281 15.74959660  3450"}}, "geometry": {"type": "Point", "coordinates": [-101.63788571710033, 25.43684430819539]}}, {"type": "Feature", "properties": {"norad_id": 66530, "name": "STARLINK-35961", "group": "last-30-days", "lat": 24.333209474491312, "lon": -99.98256317220373, "alt_km": 341.26669362323446, "timestamp": "2025-12-03T10:52:56.222511+00:00", "meta": {"OBJECT_NAME": "STARLINK-35961", "OBJECT_ID": "2025-265Q", "EPOCH": "2025-12-03T04:00:01.998720", "MEAN_MOTION": 15.75066266, "ECCENTRICITY": 0.0001632, "INCLINATION": 42.9999, "RA_OF_ASC_NODE": 110.7895, "ARG_OF_PERICENTER": 266.0375, "MEAN_ANOMALY": 48.8687, "EPHEMERIS_TYPE": 0, "CLASSIFICATION_TYPE": "U", "NORAD_CAT_ID": 66530, "ELEMENT_SET_NO": 999, "REV_AT_EPOCH": 345, "BSTAR": -0.00021592, "MEAN_MOTION_DOT": -0.00033553, "MEAN_MOTION_DDOT": 0}, "tle": {"line1": "1 66530U 25265Q   25337.16668980 -.00033553  00000+0 -21592-3 0  9996", "line2": "2 66530  42.9999 110.7895 0001632 266.0375  48.8687 15.75066266  3453"}}, "geometry": {"type": "Point", "coordinates": [-99.98256317220373, 24.333209474491312]}}, {"type": "Feature", "properties": {"norad_id": 66531, "name": "STARLINK-35960", "group": "last-30-days", "lat": 23.18161054624477, "lon": -98.31383199129036, "alt_km": 341.3139049813335, "timestamp": "2025-12-03T10:52:56.222521+00:00", "meta": {"OBJECT_NAME": "STARLINK-35960", "OBJECT_ID": "2025-265R", "EPOCH": "2025-12-03T04:00:01.998720", "MEAN_MOTION": 15.75056024, "ECCENTRICITY": 0.0001658, "INCLINATION": 42.9998, "RA_OF_ASC_NODE": 110.7843, "ARG_OF_PERICENTER": 262.3109, "MEAN_ANOMALY": 54.5069, "EPHEMERIS_TYPE": 0, "CLASSIFICATION_TYPE": "U", "NORAD_CAT_ID": 66531, "ELEMENT_SET_NO": 999, "REV_AT_EPOCH": 345, "BSTAR": 0.00011468, "MEAN_MOTION_DOT": 0.00017187, "MEAN_MOTION_DDOT": 0}, "tle": {"line1": "1 66531U 25265R   25337.16668980  .00017187  00000+0  11468-3 0  9991", "line2": "2 66531  42.9998 110.7843 0001658 262.3109  54.5069 15.75056024  3457"}}, "geometry": {"type": "Point", "coordinates": [-98.31383199129036, 23.18161054624477]}}, {"type": "Feature", "properties": {"norad_id": 66532, "name": "STARLINK-35914", "group": "last-30-days", "lat": 22.009128503202405, "lon": -96.66844606902666, "alt_km": 341.5306703190445, "timestamp": "2025-12-03T10:52:56.222531+00:00", "meta": {"OBJECT_NAME": "STARLINK-35914", "OBJECT_ID": "2025-265S", "EPOCH": "2025-12-03T04:00:01.998720", "MEAN_MOTION": 15.75066443, "ECCENTRICITY": 0.0001794, "INCLINATION": 42.9997, "RA_OF_ASC_NODE": 110.7797, "ARG_OF_PERICENTER": 264.0659, "MEAN_ANOMALY": 54.6658, "EPHEMERIS_TYPE": 0, "CLASSIFICATION_TYPE": "U", "NORAD_CAT_ID": 66532, "ELEMENT_SET_NO": 999, "REV_AT_EPOCH": 345, "BSTAR": 5.4243e-05, "MEAN_MOTION_DOT": 7.872e-05, "MEAN_MOTION_DDOT": 0}, "tle": {"line1": "1 66532U 25265S   25337.16668980  .00007872  00000+0  54243-4 0  9991", "line2": "2 66532  42.9997 110.7797 0001794 264.0659  54.6658 15.75066443  3456"}}, "geometry": {"type": "Point", "coordinates": [-96.66844606902666, 22.009128503202405]}}, {"type": "Feature", "properties": {"norad_id": 66533, "name": "STARLINK-35707", "group": "last-30-days", "lat": 20.824315333838744, "lon": -95.05533249438496, "alt_km": 341.7472094563682, "timestamp": "2025-12-03T10:52:56.222541+00:00", "meta": {"OBJECT_NAME": "STARLINK-35707", "OBJECT_ID": "2025-265T", "EPOCH": "2025-12-03T04:00:01.998720", "MEAN_MOTION": 15.75049587, "ECCENTRICITY": 0.0001642, "INCLINATION": 42.9999, "RA_OF_ASC_NODE": 110.775, "ARG_OF_PERICENTER": 269.0424, "MEAN_ANOMALY": 51.6155, "EPHEMERIS_TYPE": 0, "CLASSIFICATION_TYPE": "U", "NORAD_CAT_ID": 66533, "ELEMENT_SET_NO": 999, "REV_AT_EPOCH": 345, "BSTAR": 0.00013778, "MEAN_MOTION_DOT": 0.00020748, "MEAN_MOTION_DDOT": 0}, "tle": {"line1": "1 66533U 25265T   25337.16668980  .00020748  00000+0  13778-3 0  9996", "line2": "2 66533  42.9999 110.7750 0001642 269.0424  51.6155 15.75049587  3454"}}, "geometry": {"type": "Point", "coordinates": [-95.05533249438496, 20.824315333838744]}}, {"type": "Feature", "properties": {"norad_id": 66534, "name": "STARLINK-35976", "group": "last-30-days", "lat": 19.620992976438608, "lon": -93.46274895440156, "alt_km": 341.5935515346364, "timestamp": "2025-12-03T10:52:56.222553+00:00", "meta": {"OBJECT_NAME": "STARLINK-35976", "OBJECT_ID": "2025-265U", "EPOCH": "2025-12-03T04:00:01.998720", "MEAN_MOTION": 15.75072333, "ECCENTRICITY": 0.0001869, "INCLINATION": 43.0001, "RA_OF_ASC_NODE": 110.7706, "ARG_OF_PERICENTER": 251.0592, "MEAN_ANOMALY": 71.5072, "EPHEMERIS_TYPE": 0, "CLASSIFICATION_TYPE": "U", "NORAD_CAT_ID": 66534, "ELEMENT_SET_NO": 999, "REV_AT_EPOCH": 345, "BSTAR": -9.6629e-06, "MEAN_MOTION_DOT": -1.964e-05, "MEAN_MOTION_DDOT": 0}, "tle": {"line1": "1 66534U 25265U   25337.16668980 -.00001964  00000+0 -96629-5 0  9996", "line2": "2 66534  43.0001 110.7706 0001869 251.0592  71.5072 15.75072333  3454"}}, "geometry": {"type": "Point", "coordinates": [-93.46274895440156, 19.620992976438608]}}, {"type": "Feature", "properties": {"norad_id": 66535, "name": "STARLINK-35514", "group": "last-30-days", "lat": 18.408114727407064, "lon": -91.90011806273309, "alt_km": 342.0859399519868, "timestamp": "2025-12-03T10:52:56.222563+00:00", "meta": {"OBJECT_NAME": "STARLINK-35514", "OBJECT_ID": "2025-265V", "EPOCH": "2025-12-03T04:00:01.998720", "MEAN_MOTION": 15.75057374, "ECCENTRICITY": 0.0001696, "INCLINATION": 43, "RA_OF_ASC_NODE": 110.7658, "ARG_OF_PERICENTER": 268.036, "MEAN_ANOMALY": 56.456, "EPHEMERIS_TYPE": 0, "CLASSIFICATION_TYPE": "U", "NORAD_CAT_ID": 66535, "ELEMENT_SET_NO": 999, "REV_AT_EPOCH": 345, "BSTAR": -1.8668e-05, "MEAN_MOTION_DOT": -3.347e-05, "MEAN_MOTION_DDOT": 0}, "tle": {"line1": "1 66535U 25265V   25337.16668980 -.00003347  00000+0 -18668-4 0  9990", "line2": "2 66535  43.0000 110.7658 0001696 268.0360  56.4560 15.75057374  3451"}}, "geometry": {"type": "Point", "coordinates": [-91.90011806273309, 18.408114727407064]}}, {"type": "Feature", "properties": {"norad_id": 66536, "name": "STARLINK-35640", "group": "last-30-days", "lat": 17.17949301132053, "lon": -90.35574070073397, "alt_km": 342.2050971047838, "timestamp": "2025-12-03T10:52:56.222573+00:00", "meta": {"OBJECT_NAME": "STARLINK-35640", "OBJECT_ID": "2025-265W", "EPOCH": "2025-12-03T04:00:01.998720", "MEAN_MOTION": 15.75087628, "ECCENTRICITY": 0.0001653, "INCLINATION": 42.9998, "RA_OF_ASC_NODE": 110.7611, "ARG_OF_PERICENTER": 266.4957, "MEAN_ANOMALY": 59.8984, "EPHEMERIS_TYPE": 0, "CLASSIFICATION_TYPE": "U", "NORAD_CAT_ID": 66536, "ELEMENT_SET_NO": 999, "REV_AT_EPOCH": 343, "BSTAR": -0.00035135, "MEAN_MOTION_DOT": -0.00054218, "MEAN_MOTION_DDOT": 0}, "tle": {"line1": "1 66536U 25265W   25337.16668980 -.00054218  00000+0 -35135-3 0  9991", "line2": "2 66536  42.9998 110.7611 0001653 266.4957  59.8984 15.75087628  3432"}}, "geometry": {"type": "Point", "coordinates": [-90.35574070073397, 17.17949301132053]}}, {"type": "Feature", "properties": {"norad_id": 66537, "name": "STARLINK-35582", "group": "last-30-days", "lat": 15.939443577775906, "lon": -88.83216071963548, "alt_km": 342.3056202074695, "timestamp": "2025-12-03T10:52:56.222584+00:00", "meta": {"OBJECT_NAME": "STARLINK-35582", "OBJECT_ID": "2025-265X", "EPOCH": "2025-12-03T04:00:01.998720", "MEAN_MOTION": 15.75082513, "ECCENTRICITY": 0.0001681, "INCLINATION": 43.0001, "RA_OF_ASC_NODE": 110.756, "ARG_OF_PERICENTER": 264.5024, "MEAN_ANOMALY": 63.8082, "EPHEMERIS_TYPE": 0, "CLASSIFICATION_TYPE": "U", "NORAD_CAT_ID": 66537, "ELEMENT_SET_NO": 999, "REV_AT_EPOCH": 345, "BSTAR": -0.00018023, "MEAN_MOTION_DOT": -0.00028123, "MEAN_MOTION_DDOT": 0}, "tle": {"line1": "1 66537U 25265X   25337.16668980 -.00028123  00000+0 -18023-3 0  9995", "line2": "2 66537  43.0001 110.7560 0001681 264.5024  63.8082 15.75082513  3452"}}, "geometry": {"type": "Point", "coordinates": [-88.83216071963548, 15.939443577775906]}}, {"type": "Feature", "properties": {"norad_id": 66538, "name": "STARLINK-35577", "group": "last-30-days", "lat": 14.691814372972786, "lon": -87.33147258894283, "alt_km": 342.5294535593075, "timestamp": "2025-12-03T10:52:56.222596+00:00", "meta": {"OBJECT_NAME": "STARLINK-35577", "OBJECT_ID": "2025-265Y", "EPOCH": "2025-12-03T04:00:01.998720", "MEAN_MOTION": 15.75066546, "ECCENTRICITY": 0.0001677, "INCLINATION": 43.0001, "RA_OF_ASC_NODE": 110.7507, "ARG_OF_PERICENTER": 266.7489, "MEAN_ANOMALY": 63.488, "EPHEMERIS_TYPE": 0, "CLASSIFICATION_TYPE": "U", "NORAD_CAT_ID": 66538, "ELEMENT_SET_NO": 999, "REV_AT_EPOCH": 345, "BSTAR": -0.00010161, "MEAN_MOTION_DOT": -0.00016076, "MEAN_MOTION_DDOT": 0}, "tle": {"line1": "1 66538U 25265Y   25337.16668980 -.00016076  00000+0 -10161-3 0  9995", "line2": "2 66538  43.0001 110.7507 0001677 266.7489  63.4880 15.75066546  3458"}}, "geometry": {"type": "Point", "coordinates": [-87.33147258894283, 14.691814372972786]}}]}